CCSDS_OMM_VERS = 2.0
CREATION_DATE  = 
ORIGINATOR     = 

OBJECT_NAME    = SL-3 R/B
OBJECT_ID      = 1982-079B
CENTER_NAME    = EARTH
REF_FRAME      = TEME
TIME_SYSTEM    = UTC
MEAN_ELEMENT_THEORY = SGP/SGP4

EPOCH          = 2026-03-17T22:26:26.759616
MEAN_MOTION    = 15.24919180
ECCENTRICITY   = .00253552
INCLINATION    = 81.1490
RA_OF_ASC_NODE = 183.3423
ARG_OF_PERICENTER = 137.4374
MEAN_ANOMALY   = 222.8831

EPHEMERIS_TYPE = 0
CLASSIFICATION_TYPE = U
NORAD_CAT_ID   = 13403
ELEMENT_SET_NO = 999
REV_AT_EPOCH   = 37895
BSTAR          = .18218022E-3
MEAN_MOTION_DOT = .4602E-4
MEAN_MOTION_DDOT = 0

CCSDS_OMM_VERS = 2.0
CREATION_DATE  = 
ORIGINATOR     = 

OBJECT_NAME    = SL-14 R/B
OBJECT_ID      = 1982-092B
CENTER_NAME    = EARTH
REF_FRAME      = TEME
TIME_SYSTEM    = UTC
MEAN_ELEMENT_THEORY = SGP/SGP4

EPOCH          = 2026-03-17T22:38:13.227360
MEAN_MOTION    = 14.86674053
ECCENTRICITY   = .00187527
INCLINATION    = 82.5678
RA_OF_ASC_NODE = 133.6796
ARG_OF_PERICENTER = 274.0969
MEAN_ANOMALY   = 259.4709

EPHEMERIS_TYPE = 0
CLASSIFICATION_TYPE = U
NORAD_CAT_ID   = 13553
ELEMENT_SET_NO = 999
REV_AT_EPOCH   = 33015
BSTAR          = .42250248E-4
MEAN_MOTION_DOT = .401E-5
MEAN_MOTION_DDOT = 0

CCSDS_OMM_VERS = 2.0
CREATION_DATE  = 
ORIGINATOR     = 

OBJECT_NAME    = SL-3 R/B
OBJECT_ID      = 1983-010B
CENTER_NAME    = EARTH
REF_FRAME      = TEME
TIME_SYSTEM    = UTC
MEAN_ELEMENT_THEORY = SGP/SGP4

EPOCH          = 2026-03-17T20:22:11.428896
MEAN_MOTION    = 15.46645678
ECCENTRICITY   = .00172063
INCLINATION    = 81.1068
RA_OF_ASC_NODE = 352.2435
ARG_OF_PERICENTER = 24.3125
MEAN_ANOMALY   = 335.8928

EPHEMERIS_TYPE = 0
CLASSIFICATION_TYPE = U
NORAD_CAT_ID   = 13819
ELEMENT_SET_NO = 999
REV_AT_EPOCH   = 35920
BSTAR          = .25013847E-3
MEAN_MOTION_DOT = .12579E-3
MEAN_MOTION_DDOT = 0

CCSDS_OMM_VERS = 2.0
CREATION_DATE  = 
ORIGINATOR     = 

OBJECT_NAME    = SL-3 R/B
OBJECT_ID      = 1983-075B
CENTER_NAME    = EARTH
REF_FRAME      = TEME
TIME_SYSTEM    = UTC
MEAN_ELEMENT_THEORY = SGP/SGP4

EPOCH          = 2026-03-17T22:43:51.460896
MEAN_MOTION    = 15.38614037
ECCENTRICITY   = .00209781
INCLINATION    = 97.6135
RA_OF_ASC_NODE = 81.8379
ARG_OF_PERICENTER = 194.9199
MEAN_ANOMALY   = 165.1429

EPHEMERIS_TYPE = 0
CLASSIFICATION_TYPE = U
NORAD_CAT_ID   = 14208
ELEMENT_SET_NO = 999
REV_AT_EPOCH   = 33142
BSTAR          = .22342038E-3
MEAN_MOTION_DOT = .8494E-4
MEAN_MOTION_DDOT = 0

CCSDS_OMM_VERS = 2.0
CREATION_DATE  = 
ORIGINATOR     = 

OBJECT_NAME    = COSMOS 1536
OBJECT_ID      = 1984-013A
CENTER_NAME    = EARTH
REF_FRAME      = TEME
TIME_SYSTEM    = UTC
MEAN_ELEMENT_THEORY = SGP/SGP4

EPOCH          = 2026-03-17T08:05:12.073056
MEAN_MOTION    = 15.23928442
ECCENTRICITY   = .00125142
INCLINATION    = 82.5415
RA_OF_ASC_NODE = 100.2465
ARG_OF_PERICENTER = 252.6996
MEAN_ANOMALY   = 107.2872

EPHEMERIS_TYPE = 0
CLASSIFICATION_TYPE = U
NORAD_CAT_ID   = 14699
ELEMENT_SET_NO = 999
REV_AT_EPOCH   = 27378
BSTAR          = .21661899E-3
MEAN_MOTION_DOT = .5277E-4
MEAN_MOTION_DDOT = 0

CCSDS_OMM_VERS = 2.0
CREATION_DATE  = 
ORIGINATOR     = 

OBJECT_NAME    = SL-14 R/B
OBJECT_ID      = 1984-027B
CENTER_NAME    = EARTH
REF_FRAME      = TEME
TIME_SYSTEM    = UTC
MEAN_ELEMENT_THEORY = SGP/SGP4

EPOCH          = 2026-03-17T23:24:53.436672
MEAN_MOTION    = 14.85985102
ECCENTRICITY   = .00167774
INCLINATION    = 82.5397
RA_OF_ASC_NODE = 237.2399
ARG_OF_PERICENTER = 309.1418
MEAN_ANOMALY   = 50.8306

EPHEMERIS_TYPE = 0
CLASSIFICATION_TYPE = U
NORAD_CAT_ID   = 14820
ELEMENT_SET_NO = 999
REV_AT_EPOCH   = 24886
BSTAR          = .49267932E-4
MEAN_MOTION_DOT = .455E-5
MEAN_MOTION_DDOT = 0

CCSDS_OMM_VERS = 2.0
CREATION_DATE  = 
ORIGINATOR     = 

OBJECT_NAME    = SL-8 R/B
OBJECT_ID      = 1985-006B
CENTER_NAME    = EARTH
REF_FRAME      = TEME
TIME_SYSTEM    = UTC
MEAN_ELEMENT_THEORY = SGP/SGP4

EPOCH          = 2026-03-17T22:45:37.223136
MEAN_MOTION    = 14.37789274
ECCENTRICITY   = .00180977
INCLINATION    = 74.0436
RA_OF_ASC_NODE = 245.9500
ARG_OF_PERICENTER = 161.5600
MEAN_ANOMALY   = 313.5292

EPHEMERIS_TYPE = 0
CLASSIFICATION_TYPE = U
NORAD_CAT_ID   = 15483
ELEMENT_SET_NO = 999
REV_AT_EPOCH   = 15521
BSTAR          = .10830048E-3
MEAN_MOTION_DOT = .301E-5
MEAN_MOTION_DDOT = 0

CCSDS_OMM_VERS = 2.0
CREATION_DATE  = 
ORIGINATOR     = 

OBJECT_NAME    = SL-12 R/B(2)
OBJECT_ID      = 1985-042D
CENTER_NAME    = EARTH
REF_FRAME      = TEME
TIME_SYSTEM    = UTC
MEAN_ELEMENT_THEORY = SGP/SGP4

EPOCH          = 2026-03-17T21:57:23.004576
MEAN_MOTION    = 14.21984723
ECCENTRICITY   = .00329915
INCLINATION    = 71.1066
RA_OF_ASC_NODE = 70.3495
ARG_OF_PERICENTER = 114.5825
MEAN_ANOMALY   = 256.5347

EPHEMERIS_TYPE = 0
CLASSIFICATION_TYPE = U
NORAD_CAT_ID   = 15772
ELEMENT_SET_NO = 999
REV_AT_EPOCH   = 11556
BSTAR          = .27754219E-4
MEAN_MOTION_DOT = .14E-6
MEAN_MOTION_DDOT = 0

CCSDS_OMM_VERS = 2.0
CREATION_DATE  = 
ORIGINATOR     = 

OBJECT_NAME    = SL-14 R/B
OBJECT_ID      = 1985-069B
CENTER_NAME    = EARTH
REF_FRAME      = TEME
TIME_SYSTEM    = UTC
MEAN_ELEMENT_THEORY = SGP/SGP4

EPOCH          = 2026-03-17T21:22:25.311936
MEAN_MOTION    = 14.86442496
ECCENTRICITY   = .00192229
INCLINATION    = 82.5297
RA_OF_ASC_NODE = 17.2230
ARG_OF_PERICENTER = 160.6509
MEAN_ANOMALY   = 199.5442

EPHEMERIS_TYPE = 0
CLASSIFICATION_TYPE = U
NORAD_CAT_ID   = 15945
ELEMENT_SET_NO = 999
REV_AT_EPOCH   = 17405
BSTAR          = .50600463E-4
MEAN_MOTION_DOT = .473E-5
MEAN_MOTION_DDOT = 0

CCSDS_OMM_VERS = 2.0
CREATION_DATE  = 
ORIGINATOR     = 

OBJECT_NAME    = SL-16 R/B
OBJECT_ID      = 1985-097B
CENTER_NAME    = EARTH
REF_FRAME      = TEME
TIME_SYSTEM    = UTC
MEAN_ELEMENT_THEORY = SGP/SGP4

EPOCH          = 2026-03-17T20:19:07.072896
MEAN_MOTION    = 14.16599116
ECCENTRICITY   = .00096533
INCLINATION    = 71.0014
RA_OF_ASC_NODE = 123.3818
ARG_OF_PERICENTER = 249.7083
MEAN_ANOMALY   = 283.4970

EPHEMERIS_TYPE = 0
CLASSIFICATION_TYPE = U
NORAD_CAT_ID   = 16182
ELEMENT_SET_NO = 999
REV_AT_EPOCH   = 8838
BSTAR          = .1317985E-3
MEAN_MOTION_DOT = .215E-5
MEAN_MOTION_DDOT = 0

CCSDS_OMM_VERS = 2.0
CREATION_DATE  = 
ORIGINATOR     = 

OBJECT_NAME    = SL-14 R/B
OBJECT_ID      = 1986-006B
CENTER_NAME    = EARTH
REF_FRAME      = TEME
TIME_SYSTEM    = UTC
MEAN_ELEMENT_THEORY = SGP/SGP4

EPOCH          = 2026-03-17T22:23:15.415584
MEAN_MOTION    = 14.86826880
ECCENTRICITY   = .00751894
INCLINATION    = 82.5237
RA_OF_ASC_NODE = 251.9766
ARG_OF_PERICENTER = 244.9451
MEAN_ANOMALY   = 114.3948

EPHEMERIS_TYPE = 0
CLASSIFICATION_TYPE = U
NORAD_CAT_ID   = 16496
ELEMENT_SET_NO = 999
REV_AT_EPOCH   = 15043
BSTAR          = .68322378E-4
MEAN_MOTION_DOT = .667E-5
MEAN_MOTION_DDOT = 0

CCSDS_OMM_VERS = 2.0
CREATION_DATE  = 
ORIGINATOR     = 

OBJECT_NAME    = COSMOS 1743
OBJECT_ID      = 1986-034A
CENTER_NAME    = EARTH
REF_FRAME      = TEME
TIME_SYSTEM    = UTC
MEAN_ELEMENT_THEORY = SGP/SGP4

EPOCH          = 2026-03-17T22:08:45.043584
MEAN_MOTION    = 15.59178975
ECCENTRICITY   = .00020932
INCLINATION    = 82.5282
RA_OF_ASC_NODE = 65.1840
ARG_OF_PERICENTER = 218.8669
MEAN_ANOMALY   = 141.2437

EPHEMERIS_TYPE = 0
CLASSIFICATION_TYPE = U
NORAD_CAT_ID   = 16719
ELEMENT_SET_NO = 999
REV_AT_EPOCH   = 18153
BSTAR          = .39056005E-3
MEAN_MOTION_DOT = .30672E-3
MEAN_MOTION_DDOT = 0

