SL-3 R/B                
1 13403U 82079B   26076.93503194  .00004602  00000+0  18218-3 0  9996
2 13403  81.1490 183.3423 0025355 137.4374 222.8831 15.24919180378957
SL-14 R/B               
1 13553U 82092B   26076.94320865  .00000401  00000+0  42250-4 0  9997
2 13553  82.5678 133.6796 0018752 274.0969 259.4709 14.86674053330152
SL-3 R/B                
1 13819U 83010B   26076.84874339  .00012579  00000+0  25014-3 0  9999
2 13819  81.1068 352.2435 0017206  24.3125 335.8928 15.46645678359204
SL-3 R/B                
1 14208U 83075B   26076.94712339  .00008494  00000+0  22342-3 0  9997
2 14208  97.6135  81.8379 0020978 194.9199 165.1429 15.38614037331421
COSMOS 1536             
1 14699U 84013A   26076.33694529  .00005277  00000+0  21662-3 0  9997
2 14699  82.5415 100.2465 0012514 252.6996 107.2872 15.23928442273780
SL-14 R/B               
1 14820U 84027B   26076.97561848  .00000455  00000+0  49268-4 0  9991
2 14820  82.5397 237.2399 0016777 309.1418  50.8306 14.85985102248863
SL-8 R/B                
1 15483U 85006B   26076.94834749  .00000301  00000+0  10830-3 0  9997
2 15483  74.0436 245.9500 0018097 161.5600 313.5292 14.37789274155217
SL-12 R/B(2)            
1 15772U 85042D   26076.91484959  .00000014  00000+0  27754-4 0  9994
2 15772  71.1066  70.3495 0032991 114.5825 256.5347 14.21984723115564
SL-14 R/B               
1 15945U 85069B   26076.89057074  .00000473  00000+0  50600-4 0  9991
2 15945  82.5297  17.2230 0019222 160.6509 199.5442 14.86442496174056
SL-16 R/B               
1 16182U 85097B   26076.84660964  .00000215  00000+0  13180-3 0  9994
2 16182  71.0014 123.3818 0009653 249.7083 283.4970 14.16599116 88388
SL-14 R/B               
1 16496U 86006B   26076.93281731  .00000667  00000+0  68322-4 0  9994
2 16496  82.5237 251.9766 0075189 244.9451 114.3948 14.86826880150434
COSMOS 1743             
1 16719U 86034A   26076.92274356  .00030672  00000+0  39056-3 0  9997
2 16719  82.5282  65.1840 0002093 218.8669 141.2437 15.59178975181538
